{
  "type": "FeatureCollection",
  "features": [
    {
      "type": "Feature",
      "properties": {
        "norad_id": 33913,
        "name": "COSMOS 2251 DEB",
        "group": "cosmos-2251-debris",
        "lat": -69.56495796681831,
        "lon": 137.7910139414658,
        "alt_km": 703.6533459685834,
        "timestamp": "2025-12-10T09:57:45.090834+00:00",
        "meta_object_name": "COSMOS 2251 DEB",
        "meta_object_id": "1993-036DS",
        "meta_epoch": "2025-12-10T00:55:42.092832",
        "meta_mean_motion": 14.48468658,
        "meta_eccentricity": 0.0048175,
        "meta_inclination": 74.0336,
        "meta_ra_of_asc_node": 188.7058,
        "meta_arg_of_pericenter": 291.7789,
        "meta_mean_anomaly": 189.1791,
        "meta_ephemeris_type": 0,
        "meta_classification_type": "U",
        "meta_norad_cat_id": 33913,
        "meta_element_set_no": 999,
        "meta_rev_at_epoch": 88418,
        "meta_bstar": 0.00070019,
        "meta_mean_motion_dot": 2.637e-05,
        "meta_mean_motion_ddot": 0,
        "tle_line1": "1 33913U 93036DS  25344.03868163  .00002637  00000+0  70019-3 0  9990",
        "tle_line2": "2 33913  74.0336 188.7058 0048175 291.7789 189.1791 14.48468658884188"
      },
      "geometry": {
        "type": "Point",
        "coordinates": [
          137.7910139414658,
          -69.56495796681831
        ]
      }
    },
    {
      "type": "Feature",
      "properties": {
        "norad_id": 33914,
        "name": "COSMOS 2251 DEB",
        "group": "cosmos-2251-debris",
        "lat": 7.996467591340963,
        "lon": -163.3700492302421,
        "alt_km": 844.5110284430239,
        "timestamp": "2025-12-10T09:57:45.090844+00:00",
        "meta_object_name": "COSMOS 2251 DEB",
        "meta_object_id": "1993-036DT",
        "meta_epoch": "2025-12-10T04:11:10.783104",
        "meta_mean_motion": 13.71981942,
        "meta_eccentricity": 0.0301382,
        "meta_inclination": 74.0914,
        "meta_ra_of_asc_node": 19.3225,
        "meta_arg_of_pericenter": 122.9858,
        "meta_mean_anomaly": 297.7436,
        "meta_ephemeris_type": 0,
        "meta_classification_type": "U",
        "meta_norad_cat_id": 33914,
        "meta_element_set_no": 999,
        "meta_rev_at_epoch": 84046,
        "meta_bstar": 0.00059159,
        "meta_mean_motion_dot": 7.23e-06,
        "meta_mean_motion_ddot": 0,
        "tle_line1": "1 33914U 93036DT  25344.17443036  .00000723  00000+0  59159-3 0  9990",
        "tle_line2": "2 33914  74.0914  19.3225 0301382 122.9858 297.7436 13.71981942840466"
      },
      "geometry": {
        "type": "Point",
        "coordinates": [
          -163.3700492302421,
          7.996467591340963
        ]
      }
    },
    {
      "type": "Feature",
      "properties": {
        "norad_id": 33915,
        "name": "COSMOS 2251 DEB",
        "group": "cosmos-2251-debris",
        "lat": 53.92991285482237,
        "lon": -164.7591839965584,
        "alt_km": 695.4501681343827,
        "timestamp": "2025-12-10T09:57:45.090854+00:00",
        "meta_object_name": "COSMOS 2251 DEB",
        "meta_object_id": "1993-036DU",
        "meta_epoch": "2025-12-10T04:40:51.492288",
        "meta_mean_motion": 14.35073855,
        "meta_eccentricity": 0.0104543,
        "meta_inclination": 74.0442,
        "meta_ra_of_asc_node": 38.7706,
        "meta_arg_of_pericenter": 132.0087,
        "meta_mean_anomaly": 294.443,
        "meta_ephemeris_type": 0,
        "meta_classification_type": "U",
        "meta_norad_cat_id": 33915,
        "meta_element_set_no": 999,
        "meta_rev_at_epoch": 87721,
        "meta_bstar": 0.00056384,
        "meta_mean_motion_dot": 1.685e-05,
        "meta_mean_motion_ddot": 0,
        "tle_line1": "1 33915U 93036DU  25344.19504042  .00001685  00000+0  56384-3 0  9993",
        "tle_line2": "2 33915  74.0442  38.7706 0104543 132.0087 294.4430 14.35073855877215"
      },
      "geometry": {
        "type": "Point",
        "coordinates": [
          -164.7591839965584,
          53.92991285482237
        ]
      }
    },
    {
      "type": "Feature",
      "properties": {
        "norad_id": 33916,
        "name": "COSMOS 2251 DEB",
        "group": "cosmos-2251-debris",
        "lat": 71.40345809553384,
        "lon": 166.22235836347497,
        "alt_km": 1101.5707972025111,
        "timestamp": "2025-12-10T09:57:45.090864+00:00",
        "meta_object_name": "COSMOS 2251 DEB",
        "meta_object_id": "1993-036DV",
        "meta_epoch": "2025-12-10T04:30:50.423904",
        "meta_mean_motion": 13.68609103,
        "meta_eccentricity": 0.03254,
        "meta_inclination": 74.0529,
        "meta_ra_of_asc_node": 44.7812,
        "meta_arg_of_pericenter": 217.4647,
        "meta_mean_anomaly": 207.4343,
        "meta_ephemeris_type": 0,
        "meta_classification_type": "U",
        "meta_norad_cat_id": 33916,
        "meta_element_set_no": 999,
        "meta_rev_at_epoch": 83856,
        "meta_bstar": 0.00068352,
        "meta_mean_motion_dot": 8.26e-06,
        "meta_mean_motion_ddot": 0,
        "tle_line1": "1 33916U 93036DV  25344.18808361  .00000826  00000+0  68352-3 0  9998",
        "tle_line2": "2 33916  74.0529  44.7812 0325400 217.4647 207.4343 13.68609103838562"
      },
      "geometry": {
        "type": "Point",
        "coordinates": [
          166.22235836347497,
          71.40345809553384
        ]
      }
    },
    {
      "type": "Feature",
      "properties": {
        "norad_id": 33917,
        "name": "COSMOS 2251 DEB",
        "group": "cosmos-2251-debris",
        "lat": 9.922791463727336,
        "lon": -56.651428598246795,
        "alt_km": 868.1066739456619,
        "timestamp": "2025-12-10T09:57:45.090874+00:00",
        "meta_object_name": "COSMOS 2251 DEB",
        "meta_object_id": "1993-036DW",
        "meta_epoch": "2025-12-09T19:04:51.754080",
        "meta_mean_motion": 13.69351867,
        "meta_eccentricity": 0.0331232,
        "meta_inclination": 74.1068,
        "meta_ra_of_asc_node": 127.2217,
        "meta_arg_of_pericenter": 228.8261,
        "meta_mean_anomaly": 128.3855,
        "meta_ephemeris_type": 0,
        "meta_classification_type": "U",
        "meta_norad_cat_id": 33917,
        "meta_element_set_no": 999,
        "meta_rev_at_epoch": 83693,
        "meta_bstar": 0.0011347,
        "meta_mean_motion_dot": 1.426e-05,
        "meta_mean_motion_ddot": 0,
        "tle_line1": "1 33917U 93036DW  25343.79504345  .00001426  00000+0  11347-2 0  9998",
        "tle_line2": "2 33917  74.1068 127.2217 0331232 228.8261 128.3855 13.69351867836936"
      },
      "geometry": {
        "type": "Point",
        "coordinates": [
          -56.651428598246795,
          9.922791463727336
        ]
      }
    },
    {
      "type": "Feature",
      "properties": {
        "norad_id": 33920,
        "name": "COSMOS 2251 DEB",
        "group": "cosmos-2251-debris",
        "lat": -48.4544615346614,
        "lon": 141.65819975649606,
        "alt_km": 700.0019557906089,
        "timestamp": "2025-12-10T09:57:45.090884+00:00",
        "meta_object_name": "COSMOS 2251 DEB",
        "meta_object_id": "1993-036DZ",
        "meta_epoch": "2025-12-09T21:22:37.465824",
        "meta_mean_motion": 14.58191466,
        "meta_eccentricity": 0.0038377,
        "meta_inclination": 74.0619,
        "meta_ra_of_asc_node": 303.8409,
        "meta_arg_of_pericenter": 310.7658,
        "meta_mean_anomaly": 49.0178,
        "meta_ephemeris_type": 0,
        "meta_classification_type": "U",
        "meta_norad_cat_id": 33920,
        "meta_element_set_no": 999,
        "meta_rev_at_epoch": 88073,
        "meta_bstar": 0.0030276,
        "meta_mean_motion_dot": 0.0001411,
        "meta_mean_motion_ddot": 0,
        "tle_line1": "1 33920U 93036DZ  25343.89071141  .00014110  00000+0  30276-2 0  9992",
        "tle_line2": "2 33920  74.0619 303.8409 0038377 310.7658  49.0178 14.58191466880731"
      },
      "geometry": {
        "type": "Point",
        "coordinates": [
          141.65819975649606,
          -48.4544615346614
        ]
      }
    },
    {
      "type": "Feature",
      "properties": {
        "norad_id": 33922,
        "name": "COSMOS 2251 DEB",
        "group": "cosmos-2251-debris",
        "lat": 73.6600741154661,
        "lon": -130.53491161517786,
        "alt_km": 736.4060568767563,
        "timestamp": "2025-12-10T09:57:45.090894+00:00",
        "meta_object_name": "COSMOS 2251 DEB",
        "meta_object_id": "1993-036EB",
        "meta_epoch": "2025-12-09T22:40:46.467264",
        "meta_mean_motion": 14.49490495,
        "meta_eccentricity": 0.0023264,
        "meta_inclination": 74.0466,
        "meta_ra_of_asc_node": 153.0033,
        "meta_arg_of_pericenter": 263.9368,
        "meta_mean_anomaly": 250.3701,
        "meta_ephemeris_type": 0,
        "meta_classification_type": "U",
        "meta_norad_cat_id": 33922,
        "meta_element_set_no": 999,
        "meta_rev_at_epoch": 88537,
        "meta_bstar": 0.00064277,
        "meta_mean_motion_dot": 2.444e-05,
        "meta_mean_motion_ddot": 0,
        "tle_line1": "1 33922U 93036EB  25343.94498226  .00002444  00000+0  64277-3 0  9993",
        "tle_line2": "2 33922  74.0466 153.0033 0023264 263.9368 250.3701 14.49490495885375"
      },
      "geometry": {
        "type": "Point",
        "coordinates": [
          -130.53491161517786,
          73.6600741154661
        ]
      }
    }
  ]
}